LEMUR-1                 
1 40044U 14033AL  25065.70332880  .00005185  00000+0  64315-3 0  9992
2 40044  97.7255 223.6543 0051703 169.1943 191.0394 14.82112879576146
LEMUR-2-GREENBERG       
1 42837U 17042N   25065.77923055  .00016823  00000+0  90598-3 0  9997
2 42837  97.3653 249.9999 0012099 206.5636 153.4978 15.14823820417259
LEMUR-2-ANDIS           
1 42838U 17042P   25065.77755818  .00019046  00000+0  10169-2 0  9993
2 42838  97.3608 249.6018 0013305 213.9616 146.0766 15.15091573417245
LEMUR-2-MONSON          
1 42839U 17042Q   25065.45224213  .00017719  00000+0  10152-2 0  9996
2 42839  97.3962 249.7909 0009027 195.2221 164.8739 15.12626742417101
LEMUR-2-FURIAUS         
1 42840U 17042R   25065.44771345  .00017957  00000+0  10103-2 0  9990
2 42840  97.3654 248.9187 0010802 261.8209  98.1798 15.13260924417100
LEMUR-2-PETERG          
1 42841U 17042S   25065.48139884  .00015385  00000+0  83343-3 0  9991
2 42841  97.3934 252.0715 0005241 187.2842 172.8314 15.14687569417215
LEMUR-2-DEMBITZ         
1 42842U 17042T   25065.77759611  .00016339  00000+0  90945-3 0  9996
2 42842  97.3773 251.3890 0009253 214.7829 145.2798 15.13679079417262
LEMUR-2-ZACHARY         
1 42845U 17042W   25065.77350967  .00021091  00000+0  97092-3 0  9991
2 42845  97.3736 253.9416 0005697 249.3531 110.7094 15.20320548417581
LEMUR-2-JIN-LUEN        
1 43182U 18014C   25065.65828226  .00029697  00000+0  10566-2 0  9991
2 43182  97.5657 335.7560 0010477 146.6226 213.5676 15.28874401388610
LEMUR-2-URAMCHANSOL     
1 43183U 18014D   25065.27086016  .00108563  00000+0  18313-2 0  9991
2 43183  97.5514 340.6999 0011584 116.6997 243.5441 15.51199354388904
LEMUR-2-KADI            
1 43184U 18014E   25065.72763270  .00026528  00000+0  93715-3 0  9996
2 43184  97.5295 334.7228 0010230 123.3104 236.9117 15.29134070388660
LEMUR-2-THENICKMOLO     
1 43185U 18014F   25065.69963644  .00053999  00000+0  13827-2 0  9997
2 43185  97.5675 338.5799 0007517 114.3839 245.8191 15.39190685388810
LEMUR-2-REMY-COLTON     
1 43884U 18111J   25065.72818246  .00211218  00000+0  24463-2 0  9990
2 43884  97.6169 354.0188 0007342 113.9398 246.2629 15.61100237338120
LEMUR-2-GUSTAVO         
1 43885U 18111K   25065.70277520  .00156290  00000+0  19246-2 0  9994
2 43885  97.6119 352.5403 0010812 107.1840 253.0601 15.59633072338033
LEMUR-2-ZO              
1 43886U 18111L   25065.73789575  .00123859  00000+0  17415-2 0  9997
2 43886  97.6052 351.3633 0011253 114.4553 245.7876 15.56185621340027
LEMUR-2-NATALIEMURRAY   
1 43887U 18111M   25065.72866528  .00290809  00000+0  26738-2 0  9999
2 43887  97.6058 354.0162 0011795  96.0416 264.2188 15.66703052340101
LEMUR-2-SARAHBETTYBOO   
1 43888U 18111N   25065.34196568  .00686698  00000+0  26535-2 0  9998
2 43888  97.6379   0.0567 0013570 130.6652 229.5800 15.85492873340208
LEMUR-2-AMANDA-SVANTE   
1 48269U 21034B   25065.63236656  .00016883  00000+0  10183-2 0  9994
2 48269  97.6272 134.3479 0004901  97.9308 262.2477 15.10807305209961
LEMUR-2-SPECIAL-K       
1 48273U 21034F   25065.68575828  .00025008  00000+0  13299-2 0  9991
2 48273  97.6144 135.2765 0002203 150.0339 210.1019 15.15252646210064
LEMUR-2-EMBRIONOVIS     
1 56970U 23084AQ  25065.60804331  .00010484  00000+0  39059-3 0  9992
2 56970  97.5676 192.5914 0011578 168.0409 192.1107 15.27588730 96080
LEMUR-2-MANO            
1 57390U 23100E   25065.69148658  .00036808  00000+0  16543-2 0  9990
2 57390  99.4586 338.1901 0010301 145.5750 214.6149 15.21003817 89949
LEMUR-2-DEVERILL-M-T    
1 57391U 23100F   25065.74007002  .00023697  00000+0  12428-2 0  9994
2 57391  99.4395 335.6749 0010890 151.7106 208.4714 15.15733318 89888
LEMUR-2-BASS            
1 58259U 23174D   25065.72593400  .00014563  00000+0  52992-3 0  9992
2 58259  97.4223 143.4375 0010123  49.7214 310.4909 15.28289444 73642
LEMUR-2-DILIGHTFUL      
1 58260U 23174E   25065.68115711  .00095752  00000+0  14852-2 0  9995
2 58260  97.4225 148.8418 0004366 346.1243  13.9889 15.53655341 73970
LEMUR-2-GOOD-VIBES      
1 58263U 23174H   25065.68164033  .00089829  00000+0  13894-2 0  9992
2 58263  97.4094 148.3531 0003513 359.3217   0.8031 15.53759630 73978
LEMUR-2-SANITA-VETRA    
1 58267U 23174M   25065.71484130  .00096026  00000+0  14805-2 0  9993
2 58267  97.4174 148.5236 0003130 332.4816  27.6271 15.53825863 73983
LEMUR-2-MARAPAMASM      
1 58332U 23174CE  25065.70467974  .00252988  00000+0  17013-2 0  9997
2 58332  97.4107 152.8764 0006055 292.5146  67.5477 15.74422494 74277
LEMUR-2-THE-CLEANER     
1 58333U 23174CF  25065.72182426  .00122126  00000+0  15529-2 0  9996
2 58333  97.4169 149.8957 0005643 288.9408  71.1237 15.58947960 74073
LEMUR-2-JK0903EM1407    
1 58336U 23174CJ  25065.48564467  .00015824  00000+0  51632-3 0  9993
2 58336  97.4224 144.9380 0007219   8.3534 351.7827 15.31844264 73726
LEMUR-2-MJR092620       
1 58340U 23174CN  25065.69881377  .00012518  00000+0  40337-3 0  9990
2 58340  97.4287 145.8120 0007713   8.8383 351.2993 15.32297333 73772
